[{"OBJECT_NAME":"WORLDVIEW-1 (WV-1)","OBJECT_ID":"2007-041A","EPOCH":"2026-04-25T21:48:21.936672","MEAN_MOTION":15.24307898,"ECCENTRICITY":0.00018008,"INCLINATION":97.3875,"RA_OF_ASC_NODE":236.3842,"ARG_OF_PERICENTER":200.2408,"MEAN_ANOMALY":159.8759,"EPHEMERIS_TYPE":0,"CLASSIFICATION_TYPE":"U","NORAD_CAT_ID":32060,"ELEMENT_SET_NO":999,"REV_AT_EPOCH":3491,"BSTAR":0.00030833738,"MEAN_MOTION_DOT":7.468e-5,"MEAN_MOTION_DDOT":0},{"OBJECT_NAME":"YAOGAN-3","OBJECT_ID":"2007-055A","EPOCH":"2026-04-25T21:41:54.362688","MEAN_MOTION":14.90575441,"ECCENTRICITY":0.00014345,"INCLINATION":97.8206,"RA_OF_ASC_NODE":146.2957,"ARG_OF_PERICENTER":96.3715,"MEAN_ANOMALY":263.7666,"EPHEMERIS_TYPE":0,"CLASSIFICATION_TYPE":"U","NORAD_CAT_ID":32289,"ELEMENT_SET_NO":999,"REV_AT_EPOCH":99807,"BSTAR":0.00021076212,"MEAN_MOTION_DOT":2.006e-5,"MEAN_MOTION_DDOT":0},{"OBJECT_NAME":"COSMO-SKYMED 2","OBJECT_ID":"2007-059A","EPOCH":"2026-04-25T23:24:35.590752","MEAN_MOTION":14.82159258,"ECCENTRICITY":0.00013884,"INCLINATION":97.8885,"RA_OF_ASC_NODE":300.3299,"ARG_OF_PERICENTER":92.4793,"MEAN_ANOMALY":267.6579,"EPHEMERIS_TYPE":0,"CLASSIFICATION_TYPE":"U","NORAD_CAT_ID":32376,"ELEMENT_SET_NO":999,"REV_AT_EPOCH":99426,"BSTAR":6.0934624e-5,"MEAN_MOTION_DOT":4.33e-6,"MEAN_MOTION_DDOT":0},{"OBJECT_NAME":"RADARSAT-2","OBJECT_ID":"2007-061A","EPOCH":"2026-04-25T21:49:42.241152","MEAN_MOTION":14.29982259,"ECCENTRICITY":0.00012492,"INCLINATION":98.5805,"RA_OF_ASC_NODE":123.5864,"ARG_OF_PERICENTER":84.9357,"MEAN_ANOMALY":275.1968,"EPHEMERIS_TYPE":0,"CLASSIFICATION_TYPE":"U","NORAD_CAT_ID":32382,"ELEMENT_SET_NO":999,"REV_AT_EPOCH":95848,"BSTAR":3.3373328e-5,"MEAN_MOTION_DOT":4.2e-7,"MEAN_MOTION_DDOT":0},{"OBJECT_NAME":"CARTOSAT-2A","OBJECT_ID":"2008-021A","EPOCH":"2026-04-25T21:24:19.543968","MEAN_MOTION":14.7916817,"ECCENTRICITY":0.00103547,"INCLINATION":97.7682,"RA_OF_ASC_NODE":166.3754,"ARG_OF_PERICENTER":284.202,"MEAN_ANOMALY":75.8042,"EPHEMERIS_TYPE":0,"CLASSIFICATION_TYPE":"U","NORAD_CAT_ID":32783,"ELEMENT_SET_NO":999,"REV_AT_EPOCH":97107,"BSTAR":2.7618591e-5,"MEAN_MOTION_DOT":1.55e-6,"MEAN_MOTION_DDOT":0},{"OBJECT_NAME":"HUANJING 1A (HJ-1A)","OBJECT_ID":"2008-041A","EPOCH":"2026-04-25T23:24:20.539872","MEAN_MOTION":14.83862655,"ECCENTRICITY":0.00180066,"INCLINATION":97.6672,"RA_OF_ASC_NODE":103.8442,"ARG_OF_PERICENTER":313.9131,"MEAN_ANOMALY":46.0596,"EPHEMERIS_TYPE":0,"CLASSIFICATION_TYPE":"U","NORAD_CAT_ID":33320,"ELEMENT_SET_NO":999,"REV_AT_EPOCH":95066,"BSTAR":0.00011011742,"MEAN_MOTION_DOT":8.64e-6,"MEAN_MOTION_DDOT":0},{"OBJECT_NAME":"HUANJING 1B (HJ-1B)","OBJECT_ID":"2008-041B","EPOCH":"2026-04-25T23:43:48.143424","MEAN_MOTION":14.83218814,"ECCENTRICITY":0.00364656,"INCLINATION":97.6514,"RA_OF_ASC_NODE":107.1841,"ARG_OF_PERICENTER":357.3549,"MEAN_ANOMALY":2.7467,"EPHEMERIS_TYPE":0,"CLASSIFICATION_TYPE":"U","NORAD_CAT_ID":33321,"ELEMENT_SET_NO":999,"REV_AT_EPOCH":95067,"BSTAR":0.00011766761,"MEAN_MOTION_DOT":9.2e-6,"MEAN_MOTION_DDOT":0},{"OBJECT_NAME":"GEOEYE 1","OBJECT_ID":"2008-042A","EPOCH":"2026-04-25T21:23:50.611200","MEAN_MOTION":14.64675163,"ECCENTRICITY":0.00034457,"INCLINATION":98.1249,"RA_OF_ASC_NODE":190.4828,"ARG_OF_PERICENTER":209.3144,"MEAN_ANOMALY":150.7866,"EPHEMERIS_TYPE":0,"CLASSIFICATION_TYPE":"U","NORAD_CAT_ID":33331,"ELEMENT_SET_NO":999,"REV_AT_EPOCH":94249,"BSTAR":9.2589126e-5,"MEAN_MOTION_DOT":4.45e-6,"MEAN_MOTION_DDOT":0},{"OBJECT_NAME":"THEOS","OBJECT_ID":"2008-049A","EPOCH":"2026-04-25T21:38:42.054432","MEAN_MOTION":14.20124426,"ECCENTRICITY":0.00012876,"INCLINATION":98.5611,"RA_OF_ASC_NODE":174.8728,"ARG_OF_PERICENTER":91.9129,"MEAN_ANOMALY":268.2195,"EPHEMERIS_TYPE":0,"CLASSIFICATION_TYPE":"U","NORAD_CAT_ID":33396,"ELEMENT_SET_NO":999,"REV_AT_EPOCH":91054,"BSTAR":-0.00010009377,"MEAN_MOTION_DOT":-2.56e-6,"MEAN_MOTION_DDOT":0},{"OBJECT_NAME":"COSMO-SKYMED 3","OBJECT_ID":"2008-054A","EPOCH":"2026-04-25T21:07:05.696256","MEAN_MOTION":15.06614432,"ECCENTRICITY":0.00171306,"INCLINATION":97.836,"RA_OF_ASC_NODE":333.5775,"ARG_OF_PERICENTER":84.4184,"MEAN_ANOMALY":275.8995,"EPHEMERIS_TYPE":0,"CLASSIFICATION_TYPE":"U","NORAD_CAT_ID":33412,"ELEMENT_SET_NO":999,"REV_AT_EPOCH":94906,"BSTAR":0.00036625144,"MEAN_MOTION_DOT":5.38e-5,"MEAN_MOTION_DDOT":0},{"OBJECT_NAME":"YAOGAN-4","OBJECT_ID":"2008-061A","EPOCH":"2026-04-25T19:32:06.760032","MEAN_MOTION":14.83099685,"ECCENTRICITY":0.0012975,"INCLINATION":97.9287,"RA_OF_ASC_NODE":49.7216,"ARG_OF_PERICENTER":238.687,"MEAN_ANOMALY":121.3074,"EPHEMERIS_TYPE":0,"CLASSIFICATION_TYPE":"U","NORAD_CAT_ID":33446,"ELEMENT_SET_NO":999,"REV_AT_EPOCH":93790,"BSTAR":0.00012723948,"MEAN_MOTION_DOT":9.84e-6,"MEAN_MOTION_DDOT":0},{"OBJECT_NAME":"GOSAT (IBUKI)","OBJECT_ID":"2009-002A","EPOCH":"2026-04-25T20:13:27.761952","MEAN_MOTION":14.67542539,"ECCENTRICITY":0.00012719,"INCLINATION":98.0824,"RA_OF_ASC_NODE":227.5965,"ARG_OF_PERICENTER":109.2396,"MEAN_ANOMALY":250.8946,"EPHEMERIS_TYPE":0,"CLASSIFICATION_TYPE":"U","NORAD_CAT_ID":33492,"ELEMENT_SET_NO":999,"REV_AT_EPOCH":92378,"BSTAR":0.00012779809,"MEAN_MOTION_DOT":6.77e-6,"MEAN_MOTION_DDOT":0},{"OBJECT_NAME":"DEIMOS-1","OBJECT_ID":"2009-041A","EPOCH":"2026-04-25T23:00:21.152160","MEAN_MOTION":14.75181747,"ECCENTRICITY":0.00020273,"INCLINATION":97.7346,"RA_OF_ASC_NODE":275.468,"ARG_OF_PERICENTER":46.6247,"MEAN_ANOMALY":313.5131,"EPHEMERIS_TYPE":0,"CLASSIFICATION_TYPE":"U","NORAD_CAT_ID":35681,"ELEMENT_SET_NO":999,"REV_AT_EPOCH":89918,"BSTAR":0.00012965151,"MEAN_MOTION_DOT":8.28e-6,"MEAN_MOTION_DDOT":0},{"OBJECT_NAME":"DUBAISAT-1","OBJECT_ID":"2009-041B","EPOCH":"2026-04-25T22:11:25.802016","MEAN_MOTION":14.75025262,"ECCENTRICITY":0.00093501,"INCLINATION":97.997,"RA_OF_ASC_NODE":249.7808,"ARG_OF_PERICENTER":234.1766,"MEAN_ANOMALY":125.8575,"EPHEMERIS_TYPE":0,"CLASSIFICATION_TYPE":"U","NORAD_CAT_ID":35682,"ELEMENT_SET_NO":999,"REV_AT_EPOCH":89739,"BSTAR":0.0001797104,"MEAN_MOTION_DOT":1.159e-5,"MEAN_MOTION_DDOT":0},{"OBJECT_NAME":"OCEANSAT-2","OBJECT_ID":"2009-051A","EPOCH":"2026-04-25T22:38:08.725920","MEAN_MOTION":13.9965015,"ECCENTRICITY":0.00160907,"INCLINATION":98.2309,"RA_OF_ASC_NODE":108.0193,"ARG_OF_PERICENTER":26.2351,"MEAN_ANOMALY":333.9628,"EPHEMERIS_TYPE":0,"CLASSIFICATION_TYPE":"U","NORAD_CAT_ID":35931,"ELEMENT_SET_NO":999,"REV_AT_EPOCH":87202,"BSTAR":-8.2653154e-5,"MEAN_MOTION_DOT":-1.58e-6,"MEAN_MOTION_DDOT":0},{"OBJECT_NAME":"WORLDVIEW-2 (WV-2)","OBJECT_ID":"2009-055A","EPOCH":"2026-04-25T21:43:54.804288","MEAN_MOTION":14.37928279,"ECCENTRICITY":0.00047423,"INCLINATION":98.4692,"RA_OF_ASC_NODE":190.092,"ARG_OF_PERICENTER":31.392,"MEAN_ANOMALY":328.755,"EPHEMERIS_TYPE":0,"CLASSIFICATION_TYPE":"U","NORAD_CAT_ID":35946,"ELEMENT_SET_NO":999,"REV_AT_EPOCH":86813,"BSTAR":5.2422153e-5,"MEAN_MOTION_DOT":1.15e-6,"MEAN_MOTION_DDOT":0}]
