WORLDVIEW-1 (WV-1)      
1 32060U 07041A   26115.90858723  .00007468  00000+0  30834-3 0  9995
2 32060  97.3875 236.3842 0001800 200.2408 159.8759 15.24307898 34913
YAOGAN-3                
1 32289U 07055A   26115.90410142  .00002006  00000+0  21076-3 0  9993
2 32289  97.8206 146.2957 0001434  96.3715 263.7666 14.90575441998074
COSMO-SKYMED 2          
1 32376U 07059A   26115.97541193  .00000433  00000+0  60935-4 0  9992
2 32376  97.8885 300.3299 0001388  92.4793 267.6579 14.82159258994265
RADARSAT-2              
1 32382U 07061A   26115.90951668  .00000042  00000+0  33373-4 0  9999
2 32382  98.5805 123.5864 0001249  84.9357 275.1968 14.29982259958489
CARTOSAT-2A             
1 32783U 08021A   26115.89189287  .00000155  00000+0  27619-4 0  9990
2 32783  97.7682 166.3754 0010354 284.2020  75.8042 14.79168170971071
HUANJING 1A (HJ-1A)     
1 33320U 08041A   26115.97523773  .00000864  00000+0  11012-3 0  9997
2 33320  97.6672 103.8442 0018006 313.9131  46.0596 14.83862655950662
HUANJING 1B (HJ-1B)     
1 33321U 08041B   26115.98875166  .00000920  00000+0  11767-3 0  9995
2 33321  97.6514 107.1841 0036465 357.3549   2.7467 14.83218814950671
GEOEYE 1                
1 33331U 08042A   26115.89155800  .00000445  00000+0  92589-4 0  9997
2 33331  98.1249 190.4828 0003445 209.3144 150.7866 14.64675163942493
THEOS                   
1 33396U 08049A   26115.90187563 -.00000256  00000+0 -10009-3 0  9996
2 33396  98.5611 174.8728 0001287  91.9129 268.2195 14.20124426910540
COSMO-SKYMED 3          
1 33412U 08054A   26115.87992704  .00005380  00000+0  36625-3 0  9991
2 33412  97.8360 333.5775 0017130  84.4184 275.8995 15.06614432949067
YAOGAN-4                
1 33446U 08061A   26115.81396713  .00000984  00000+0  12724-3 0  9997
2 33446  97.9287  49.7216 0012975 238.6870 121.3074 14.83099685937900
GOSAT (IBUKI)           
1 33492U 09002A   26115.84268243  .00000677  00000+0  12780-3 0  9994
2 33492  98.0824 227.5965 0001271 109.2396 250.8946 14.67542539923780
DEIMOS-1                
1 35681U 09041A   26115.95857815  .00000828  00000+0  12965-3 0  9993
2 35681  97.7346 275.4680 0002027  46.6247 313.5131 14.75181747899180
DUBAISAT-1              
1 35682U 09041B   26115.92460419  .00001159  00000+0  17971-3 0  9991
2 35682  97.9970 249.7808 0009350 234.1766 125.8575 14.75025262897394
OCEANSAT-2              
1 35931U 09051A   26115.94315655 -.00000158  00000+0 -82653-4 0  9992
2 35931  98.2309 108.0193 0016090  26.2351 333.9628 13.99650150872023
WORLDVIEW-2 (WV-2)      
1 35946U 09055A   26115.90549542  .00000115  00000+0  52422-4 0  9994
2 35946  98.4692 190.0920 0004742  31.3920 328.7550 14.37928279868131
